satname,norad_id,inclination_deg,eccentricity,mean_motion_rev_per_day,perigee_km,apogee_km,l1,l2
STARLINK-1008,44714,53.1549,0.0003288,15.34842789,459.138658735842,463.63633004335134,1 44714U 19074B   26105.93726301  .00030767  00000+0  90511-3 0  9997,2 44714  53.1549   5.0356 0003288 158.7426 201.3714 15.34842789354586
STARLINK-1012,44718,53.1591,0.0003876,15.34142787,460.8160322225831,466.1196442932014,1 44718U 19074F   26105.93664918  .00012870  00000+0  39453-3 0  9999,2 44718  53.1591   5.3148 0003876 144.1606 215.9657 15.34142787354578
STARLINK-1017,44723,53.0508,0.0003361,15.27566199,480.7843629732988,485.39648004603714,1 44723U 19074L   26105.94341905  .00025360  00000+0  93777-3 0  9991,2 44723  53.0508 359.1246 0003361 153.5557 206.5614 15.27566199354655
STARLINK-1019,44724,53.0355,0.0004981,15.9562648,283.24964519084733,289.88902564218824,1 44724U 19074M   26106.00002315  .00246971  35098-4  60676-3 0  9994,2 44724  53.0355 307.2820 0004981 279.7659  72.5714 15.95626480  6034
STARLINK-1020,44725,53.1604,0.0003016,15.33242307,464.0820768292642,468.2105485234706,1 44725U 19074N   26105.93498905  .00028818  00000+0  89269-3 0  9997,2 44725  53.1604  30.5415 0003016 145.8204 214.2993 15.33242307354209
STARLINK-1036,44741,53.0464,0.000478,15.63882852,373.2248789323394,379.682267520343,1 44741U 19074AE  26105.45501412  .00062107  00000+0  64931-3 0  9998,2 44741  53.0464   9.5078 0004780 115.5118 244.6391 15.63882852354463
STARLINK-1039,44744,53.0656,0.0001453,15.24990482,489.815956048149,491.812073213001,1 44744U 19074AH  26105.55295469  .00023094  00000+0  92432-3 0  9993,2 44744  53.0656  45.2515 0001453  60.6704 299.4438 15.24990482353978
STARLINK-1042,44747,53.0422,2.69e-05,15.51860434,411.1117073155692,411.4769787218238,1 44747U 19074AL  26105.90194394  .00014249  00000+0  24113-3 0  9993,2 44747  53.0422 275.9750 0000269 264.9550  95.1428 15.51860434355848
STARLINK-1043,44748,53.053,0.0002439,15.56182309,397.06510421839903,400.3708540772277,1 44748U 19074AM  26105.93672589  .00023504  00000+0  33553-3 0  9996,2 44748  53.0530  14.4419 0002439 135.0871 225.0337 15.56182309354443
STARLINK-1046,44751,53.0522,0.0001448,15.48391193,420.44733564231774,422.4164907995864,1 44751U 19074AQ  26105.52856316  .00034974  00000+0  65467-3 0  9999,2 44751  53.0522  35.2089 0001448 325.9830  34.1084 15.48391193354112
STARLINK-1047,44752,53.0705,0.0002527,15.33473302,463.72959223204634,467.18834563474593,1 44752U 19074AR  26105.85229647  .00004350  00000+0  14388-3 0  9998,2 44752  53.0705 332.2820 0002527  20.4198 339.6904 15.33473302355046
STARLINK-1048,44753,53.0502,0.000293,15.60278725,384.8691634543284,388.8334466010756,1 44753U 19074AS  26105.94606362  .00076606  00000+0  91809-3 0  9998,2 44753  53.0502 348.2078 0002930 162.4631 197.6483 15.60278725354800
STARLINK-1063,44768,53.1586,0.0003697,15.33787773,461.9937815359417,467.0532447193482,1 44768U 19074BH  26105.94200200  .00029822  00000+0  90753-3 0  9990,2 44768  53.1586  45.9297 0003697 119.3767 240.7605 15.33787773354023
STARLINK-1067,44771,53.0478,0.0006242,15.64841374,369.4805104939196,377.9094975677526,1 44771U 19074BL  26105.18838439  .00030648  00000+0  31241-3 0  9996,2 44771  53.0478  26.1201 0006242 114.7495 245.4170 15.64841374354210
STARLINK-1068,44772,53.047,0.0004041,15.68746933,359.7602043597799,365.20797432418567,1 44772U 19074BM  26105.94691354  .00057718  00000+0  49707-3 0  9997,2 44772  53.0470 356.6431 0004041  73.3264 286.8196 15.68746933354685
STARLINK-1114,44927,53.0453,0.0004566,15.57061003,393.0750096595839,399.2613051293165,1 44927U 20001P   26105.92387691  .00054655  00000+0  74328-3 0  9999,2 44927  53.0453 149.6988 0004566 311.4932  48.5686 15.57061003345880
STARLINK-1123,44930,53.1458,0.0004043,15.31599984,468.2690324267114,473.807275456189,1 44930U 20001S   26105.87494649  .00027447  00000+0  89562-3 0  9994,2 44930  53.1458 172.4353 0004043  26.3291 333.7915 15.31599984345565
STARLINK-1094,44941,53.1561,0.0003143,15.33204968,464.10624083337643,468.40862717459186,1 44941U 20001AD  26105.81980476  .00023782  00000+0  74003-3 0  9990,2 44941  53.1561 146.7912 0003143  41.7198 318.4043 15.33204968345923
STARLINK-1122,44949,53.1574,0.000138,15.30761976,472.5920926490744,474.48315484522755,1 44949U 20001AM  26105.34974028  .00026197  00000+0  87814-3 0  9999,2 44949  53.1574 149.3071 0001380  85.4035 274.7123 15.30761976345844
STARLINK-1080,44961,53.0476,0.0001633,15.53713807,404.78618039060166,407.00184491933487,1 44961U 20001AZ  26105.74408858  .00051346  00000+0  79064-3 0  9992,2 44961  53.0476 110.2559 0001633 338.4359  21.6581 15.53713807346424
STARLINK-1090,44968,53.1499,0.0003785,15.31895234,467.5659949553883,472.7501543268918,1 44968U 20001BG  26105.77152206  .00025096  00000+0  81268-3 0  9997,2 44968  53.1499 134.1447 0003785  43.0320 317.0976 15.31895234346099
STARLINK-1132,45044,53.1536,0.0004705,15.48452998,418.0518678393373,424.45009192840826,1 45044U 20006A   26105.89939152  .00042345  00000+0  78830-3 0  9991,2 45044  53.1536  76.9744 0004705  30.4620 329.6662 15.48452998342682
STARLINK-1131,45047,53.1571,0.0002392,15.32070581,467.99754803314227,471.2735224139933,1 45047U 20006D   26105.29528402  .00024277  00000+0  78242-3 0  9991,2 45047  53.1571 110.8150 0002392  70.2866 289.8393 15.32070581342154
STARLINK-1134,45048,53.0308,0.0003701,15.48531794,418.50395494285476,423.53669119339065,1 45048U 20006E   26105.14907248  .00047723  00000+0  88435-3 0  9991,2 45048  53.0308  64.3113 0003701 326.5428  33.5345 15.48531794342785
STARLINK-1156,45054,53.1584,0.0001407,15.30709953,472.7288119517125,474.6569168755577,1 45054U 20006L   26105.72435495  .00028201  00000+0  94567-3 0  9995,2 45054  53.1584 108.9550 0001407  90.1979 269.9183 15.30709953342213
STARLINK-1159,45057,53.0384,0.000264,15.97971362,278.2900666259284,281.80558821480736,1 45057U 20006P   26106.00002315  .00167964  22610-4  36539-3 0  9992,2 45057  53.0384  45.0065 0002640 130.8394 288.5109 15.97971362  5981
STARLINK-1166,45060,53.0483,0.0003201,15.51382913,410.51373553027315,414.8612213613742,1 45060U 20006S   26105.94962560  .00051375  00000+0  86009-3 0  9994,2 45060  53.0483  94.3353 0003201  30.7892 329.3304 15.51382913342430
STARLINK-1169,45061,53.1572,0.0003863,15.332416,463.50446921879393,468.79236413171657,1 45061U 20006T   26105.72956359  .00030325  00000+0  93855-3 0  9999,2 45061  53.1572 108.6271 0003863  68.2406 291.9007 15.33241600342228
STARLINK-1171,45062,53.0434,0.0004854,15.67975211,361.4226580122686,367.96859992847294,1 45062U 20006U   26105.92105882  .00036258  00000+0  32494-3 0  9992,2 45062  53.0434  66.4891 0004854  83.6135 276.5433 15.67975211342822
STARLINK-1133,45064,53.1571,0.0001561,15.30792326,472.37752878275114,474.51659332661256,1 45064U 20006W   26105.95825688  .00028252  00000+0  94494-3 0  9993,2 45064  53.1571  84.6682 0001561 102.0693 258.0483 15.30792326342581
STARLINK-1167,45071,53.1587,0.000373,15.32892944,464.6328921078857,469.73950321333905,1 45071U 20006AD  26105.64551700  .00040754  00000+0  12695-2 0  9991,2 45071  53.1587  86.0177 0003730  71.7372 288.4036 15.32892944342532
STARLINK-1168,45072,53.1595,0.0001539,15.3075525,472.5032183443964,474.6121699712576,1 45072U 20006AE  26105.93965143  .00024793  00000+0  83206-3 0  9996,2 45072  53.1595  84.9675 0001539 103.1703 256.9470 15.30755250342577
STARLINK-1172,45074,53.1521,0.0003517,15.33730689,462.28667354390836,467.0999203747897,1 45074U 20006AG  26105.96228495  .00017451  00000+0  53757-3 0  9994,2 45074  53.1521  84.2520 0003517  77.2416 282.8979 15.33730689342585
STARLINK-1153,45080,53.1597,0.0004251,15.32821399,464.4891638754416,470.3092387537981,1 45080U 20006AN  26105.95531129  .00038721  00000+0  12097-2 0  9995,2 45080  53.1597  84.4896 0004251  87.9561 272.1928 15.32821399342582
STARLINK-1151,45081,53.0522,0.0005099,15.70397082,354.3266670936,361.1959361816089,1 45081U 20006AP  26105.86206173  .00042606  00000+0  34456-3 0  9995,2 45081  53.0522  56.5879 0005099  95.1661 264.9938 15.70397082342954
STARLINK-1185,45087,53.1606,0.0002098,15.40451423,443.3445940193451,446.2074883314226,1 45087U 20006AV  26105.91830716  .00030828  00000+0  75661-3 0  9999,2 45087  53.1606  67.8033 0002098 113.7846 246.3379 15.40451423342814
STARLINK-1183,45088,53.1601,0.0001024,15.3071513,472.9757896540186,474.3790412463022,1 45088U 20006AW  26105.19692423  .00010286  00000+0  35332-3 0  9998,2 45088  53.1601  72.9898 0001024  94.4103 265.7015 15.30715130342678
STARLINK-1152,45096,53.0376,0.0002808,15.42903754,435.630605384511,439.4582920861212,1 45096U 20006BE  26105.18050852  .00030069  00000+0  68051-3 0  9995,2 45096  53.0376  33.7391 0002808  41.7533 318.3686 15.42903754343215
STARLINK-1184,45098,53.0516,0.0001711,15.12098968,528.6179749500543,530.9818709650908,1 45098U 20006BG  26105.30560660  .00011778  00000+0  69222-3 0  9991,2 45098  53.0516  79.8138 0001711 247.2587 112.8224 15.12098968342579
STARLINK-1193,45100,53.0492,0.0006456,15.61524415,378.8878733312222,387.61818013373886,1 45100U 20006BJ  26105.83595210  .00072553  00000+0  82907-3 0  9995,2 45100  53.0492  49.8053 0006456  94.9528 265.2222 15.61524415343041
STARLINK-1143,45179,53.0441,0.0004472,15.72313498,349.2769723676083,355.2966634303375,1 45179U 20012B   26105.41630201  .00085012  00000+0  62685-3 0  9997,2 45179  53.0441 148.9553 0004472 311.0715  48.9916 15.72313498341687
STARLINK-1202,45183,53.1583,0.0001179,15.30526916,473.43123577417555,475.0470260658467,1 45183U 20012F   26105.06840041  .00025460  00000+0  86007-3 0  9993,2 45183  53.1583 230.2664 0001179  22.6079 337.4973 15.30526916340523
STARLINK-1216,45185,53.1577,0.0001405,15.30827148,472.38052489001075,474.30579081436736,1 45185U 20012H   26105.64540963  .00033462  00000+0  11150-2 0  9996,2 45185  53.1577 227.5513 0001405  35.1390 324.9704 15.30827148340554
